{
  "type": "FeatureCollection",
  "features": [
    {
      "type": "Feature",
      "properties": {
        "norad_id": 34314,
        "name": "COSMOS 2251 DEB",
        "group": "cosmos-2251-debris",
        "lat": 65.34794234916941,
        "lon": 104.49141464654164,
        "alt_km": 768.8700712921891,
        "timestamp": "2025-12-04T10:51:50.499909+00:00",
        "meta_object_name": "COSMOS 2251 DEB",
        "meta_object_id": "1993-036NL",
        "meta_epoch": "2025-12-04T02:26:18.335904",
        "meta_mean_motion": 14.1738983,
        "meta_eccentricity": 0.0102553,
        "meta_inclination": 74.0053,
        "meta_ra_of_asc_node": 323.7987,
        "meta_arg_of_pericenter": 71.6858,
        "meta_mean_anomaly": 45.9151,
        "meta_ephemeris_type": 0,
        "meta_classification_type": "U",
        "meta_norad_cat_id": 34314,
        "meta_element_set_no": 999,
        "meta_rev_at_epoch": 86535,
        "meta_bstar": 0.0010518,
        "meta_mean_motion_dot": 2.218e-05,
        "meta_mean_motion_ddot": 0,
        "tle_line1": "1 34314U 93036NL  25338.10160111  .00002218  00000+0  10518-2 0  9997",
        "tle_line2": "2 34314  74.0053 323.7987 0102553  71.6858  45.9151 14.17389830865352"
      },
      "geometry": {
        "type": "Point",
        "coordinates": [
          104.49141464654164,
          65.34794234916941
        ]
      }
    },
    {
      "type": "Feature",
      "properties": {
        "norad_id": 34316,
        "name": "COSMOS 2251 DEB",
        "group": "cosmos-2251-debris",
        "lat": -62.624950813499574,
        "lon": -153.02429032682835,
        "alt_km": 605.5504268651266,
        "timestamp": "2025-12-04T10:51:50.499919+00:00",
        "meta_object_name": "COSMOS 2251 DEB",
        "meta_object_id": "1993-036NN",
        "meta_epoch": "2025-12-04T01:42:33.573024",
        "meta_mean_motion": 14.91417164,
        "meta_eccentricity": 0.000783,
        "meta_inclination": 74.0649,
        "meta_ra_of_asc_node": 354.2493,
        "meta_arg_of_pericenter": 83.2481,
        "meta_mean_anomaly": 276.9592,
        "meta_ephemeris_type": 0,
        "meta_classification_type": "U",
        "meta_norad_cat_id": 34316,
        "meta_element_set_no": 999,
        "meta_rev_at_epoch": 89080,
        "meta_bstar": 0.0032226,
        "meta_mean_motion_dot": 0.00032335,
        "meta_mean_motion_ddot": 0,
        "tle_line1": "1 34316U 93036NN  25338.07122191  .00032335  00000+0  32226-2 0  9994",
        "tle_line2": "2 34316  74.0649 354.2493 0007830  83.2481 276.9592 14.91417164890806"
      },
      "geometry": {
        "type": "Point",
        "coordinates": [
          -153.02429032682835,
          -62.624950813499574
        ]
      }
    },
    {
      "type": "Feature",
      "properties": {
        "norad_id": 34317,
        "name": "COSMOS 2251 DEB",
        "group": "cosmos-2251-debris",
        "lat": 12.211507820788059,
        "lon": -134.1772719951988,
        "alt_km": 1161.825908424359,
        "timestamp": "2025-12-04T10:51:50.499930+00:00",
        "meta_object_name": "COSMOS 2251 DEB",
        "meta_object_id": "1993-036NP",
        "meta_epoch": "2025-12-03T11:17:00.960864",
        "meta_mean_motion": 13.6510987,
        "meta_eccentricity": 0.03362846,
        "meta_inclination": 73.925,
        "meta_ra_of_asc_node": 51.0171,
        "meta_arg_of_pericenter": 42.0922,
        "meta_mean_anomaly": 335.2767,
        "meta_ephemeris_type": 0,
        "meta_classification_type": "U",
        "meta_norad_cat_id": 34317,
        "meta_element_set_no": 999,
        "meta_rev_at_epoch": 83493,
        "meta_bstar": 0.00051395611,
        "meta_mean_motion_dot": 5.92e-06,
        "meta_mean_motion_ddot": 0,
        "tle_line1": "1 34317U 93036NP  25337.47015001  .00000592  00000+0  51396-3 0  9999",
        "tle_line2": "2 34317  73.9250  51.0171 0336284  42.0922 335.2767 13.65109870834936"
      },
      "geometry": {
        "type": "Point",
        "coordinates": [
          -134.1772719951988,
          12.211507820788059
        ]
      }
    },
    {
      "type": "Feature",
      "properties": {
        "norad_id": 34321,
        "name": "COSMOS 2251 DEB",
        "group": "cosmos-2251-debris",
        "lat": -15.933143200569639,
        "lon": -3.3792403747716446,
        "alt_km": 733.0302413453637,
        "timestamp": "2025-12-04T10:51:50.499940+00:00",
        "meta_object_name": "COSMOS 2251 DEB",
        "meta_object_id": "1993-036NT",
        "meta_epoch": "2025-12-03T22:55:21.872064",
        "meta_mean_motion": 14.49996768,
        "meta_eccentricity": 0.0015638,
        "meta_inclination": 74.0276,
        "meta_ra_of_asc_node": 172.8651,
        "meta_arg_of_pericenter": 302.9406,
        "meta_mean_anomaly": 177.5399,
        "meta_ephemeris_type": 0,
        "meta_classification_type": "U",
        "meta_norad_cat_id": 34321,
        "meta_element_set_no": 999,
        "meta_rev_at_epoch": 88359,
        "meta_bstar": 0.0010086,
        "meta_mean_motion_dot": 3.886e-05,
        "meta_mean_motion_ddot": 0,
        "tle_line1": "1 34321U 93036NT  25337.95511426  .00003886  00000+0  10086-2 0  9998",
        "tle_line2": "2 34321  74.0276 172.8651 0015638 302.9406 177.5399 14.49996768883595"
      },
      "geometry": {
        "type": "Point",
        "coordinates": [
          -3.3792403747716446,
          -15.933143200569639
        ]
      }
    },
    {
      "type": "Feature",
      "properties": {
        "norad_id": 34323,
        "name": "COSMOS 2251 DEB",
        "group": "cosmos-2251-debris",
        "lat": -30.35648337446692,
        "lon": -30.923108607848537,
        "alt_km": 615.6605447912898,
        "timestamp": "2025-12-04T10:51:50.499951+00:00",
        "meta_object_name": "COSMOS 2251 DEB",
        "meta_object_id": "1993-036NV",
        "meta_epoch": "2025-12-03T13:00:45.615168",
        "meta_mean_motion": 14.73904836,
        "meta_eccentricity": 0.00610358,
        "meta_inclination": 73.952,
        "meta_ra_of_asc_node": 141.1561,
        "meta_arg_of_pericenter": 187.2235,
        "meta_mean_anomaly": 234.9904,
        "meta_ephemeris_type": 0,
        "meta_classification_type": "U",
        "meta_norad_cat_id": 34323,
        "meta_element_set_no": 999,
        "meta_rev_at_epoch": 88304,
        "meta_bstar": 0.003774642,
        "meta_mean_motion_dot": 0.00025569,
        "meta_mean_motion_ddot": 0,
        "tle_line1": "1 34323U 93036NV  25337.54219462  .00025569  00000+0  37746-2 0  9994",
        "tle_line2": "2 34323  73.9520 141.1561 0061035 187.2235 234.9904 14.73904836883044"
      },
      "geometry": {
        "type": "Point",
        "coordinates": [
          -30.923108607848537,
          -30.35648337446692
        ]
      }
    },
    {
      "type": "Feature",
      "properties": {
        "norad_id": 34325,
        "name": "COSMOS 2251 DEB",
        "group": "cosmos-2251-debris",
        "lat": -12.02481297802422,
        "lon": -156.1261547724805,
        "alt_km": 953.2275262804087,
        "timestamp": "2025-12-04T10:51:50.499962+00:00",
        "meta_object_name": "COSMOS 2251 DEB",
        "meta_object_id": "1993-036NX",
        "meta_epoch": "2025-12-04T01:16:49.662912",
        "meta_mean_motion": 14.04388911,
        "meta_eccentricity": 0.0193165,
        "meta_inclination": 73.8713,
        "meta_ra_of_asc_node": 208.1108,
        "meta_arg_of_pericenter": 227.1676,
        "meta_mean_anomaly": 260.4293,
        "meta_ephemeris_type": 0,
        "meta_classification_type": "U",
        "meta_norad_cat_id": 34325,
        "meta_element_set_no": 999,
        "meta_rev_at_epoch": 85393,
        "meta_bstar": 0.0032032,
        "meta_mean_motion_dot": 6.001e-05,
        "meta_mean_motion_ddot": 0,
        "tle_line1": "1 34325U 93036NX  25338.05335258  .00006001  00000+0  32032-2 0  9998",
        "tle_line2": "2 34325  73.8713 208.1108 0193165 227.1676 260.4293 14.04388911853937"
      },
      "geometry": {
        "type": "Point",
        "coordinates": [
          -156.1261547724805,
          -12.02481297802422
        ]
      }
    },
    {
      "type": "Feature",
      "properties": {
        "norad_id": 34327,
        "name": "COSMOS 2251 DEB",
        "group": "cosmos-2251-debris",
        "lat": 19.47458013836742,
        "lon": 2.6562074185604345,
        "alt_km": 621.2641426857472,
        "timestamp": "2025-12-04T10:51:50.499973+00:00",
        "meta_object_name": "COSMOS 2251 DEB",
        "meta_object_id": "1993-036NZ",
        "meta_epoch": "2025-12-04T01:00:28.832832",
        "meta_mean_motion": 14.88875832,
        "meta_eccentricity": 0.0032251,
        "meta_inclination": 73.9938,
        "meta_ra_of_asc_node": 189.3043,
        "meta_arg_of_pericenter": 7.4924,
        "meta_mean_anomaly": 111.6918,
        "meta_ephemeris_type": 0,
        "meta_classification_type": "U",
        "meta_norad_cat_id": 34327,
        "meta_element_set_no": 999,
        "meta_rev_at_epoch": 89378,
        "meta_bstar": 0.0024595,
        "meta_mean_motion_dot": 0.00023337,
        "meta_mean_motion_ddot": 0,
        "tle_line1": "1 34327U 93036NZ  25338.04200038  .00023337  00000+0  24595-2 0  9992",
        "tle_line2": "2 34327  73.9938 189.3043 0032251   7.4924 111.6918 14.88875832893783"
      },
      "geometry": {
        "type": "Point",
        "coordinates": [
          2.6562074185604345,
          19.47458013836742
        ]
      }
    }
  ]
}